address,suburb,postcode,state,orientation
Unknown Address (ID: 0),,,,South
83A SUGARLOAF CRESCENT,CASTLECRAG,2068,NSW,South
81 SUGARLOAF CRESCENT,CASTLECRAG,2068,NSW,Southwest
79 SUGARLOAF CRESCENT,CASTLECRAG,2068,NSW,Northeast
106 SUGARLOAF CRESCENT,CASTLECRAG,2068,NSW,Southwest
108 SUGARLOAF CRESCENT,CASTLECRAG,2068,NSW,Southwest
114 SUGARLOAF CRESCENT,CASTLECRAG,2068,NSW,Southwest
77 SUGARLOAF CRESCENT,CASTLECRAG,2068,NSW,Northeast
75 SUGARLOAF CRESCENT,CASTLECRAG,2068,NSW,East
73 SUGARLOAF CRESCENT,CASTLECRAG,2068,NSW,Northeast
71 SUGARLOAF CRESCENT,CASTLECRAG,2068,NSW,Southeast
112 SUGARLOAF CRESCENT,CASTLECRAG,2068,NSW,Southwest
110 SUGARLOAF CRESCENT,CASTLECRAG,2068,NSW,Southwest
69 SUGARLOAF CRESCENT,CASTLECRAG,2068,NSW,Northwest
67 SUGARLOAF CRESCENT,CASTLECRAG,2068,NSW,Northeast
11 THE LEE,MIDDLE COVE,2068,NSW,Southeast
9 THE LEE,MIDDLE COVE,2068,NSW,Southeast
7 THE LEE,MIDDLE COVE,2068,NSW,Northeast
7 COVELEE CIRCUIT,MIDDLE COVE,2068,NSW,East
9 COVELEE CIRCUIT,MIDDLE COVE,2068,NSW,East
11 COVELEE CIRCUIT,MIDDLE COVE,2068,NSW,East
355 EDINBURGH ROAD,CASTLECRAG,2068,NSW,East
306 EDINBURGH ROAD,CASTLECRAG,2068,NSW,West
308 EDINBURGH ROAD,CASTLECRAG,2068,NSW,Northeast
343 EDINBURGH ROAD,CASTLECRAG,2068,NSW,West
341 EDINBURGH ROAD,CASTLECRAG,2068,NSW,East
339A EDINBURGH ROAD,CASTLECRAG,2068,NSW,East
349 EDINBURGH ROAD,CASTLECRAG,2068,NSW,East
345 EDINBURGH ROAD,CASTLECRAG,2068,NSW,West
351 EDINBURGH ROAD,CASTLECRAG,2068,NSW,East
353 EDINBURGH ROAD,CASTLECRAG,2068,NSW,East
375 EDINBURGH ROAD,CASTLECRAG,2068,NSW,Southwest
373 EDINBURGH ROAD,CASTLECRAG,2068,NSW,South
369 EDINBURGH ROAD,CASTLECRAG,2068,NSW,Southwest
369B EDINBURGH ROAD,CASTLECRAG,2068,NSW,Southwest
359 EDINBURGH ROAD,CASTLECRAG,2068,NSW,Southeast
361 EDINBURGH ROAD,CASTLECRAG,2068,NSW,Northeast
357 EDINBURGH ROAD,CASTLECRAG,2068,NSW,Southeast
337 EDINBURGH ROAD,CASTLECRAG,2068,NSW,Northeast
339 EDINBURGH ROAD,CASTLECRAG,2068,NSW,Northeast
304 EDINBURGH ROAD,CASTLECRAG,2068,NSW,West
302 EDINBURGH ROAD,CASTLECRAG,2068,NSW,Northwest
300 EDINBURGH ROAD,CASTLECRAG,2068,NSW,Northwest
335 EDINBURGH ROAD,CASTLECRAG,2068,NSW,Southeast
333 EDINBURGH ROAD,CASTLECRAG,2068,NSW,Southeast
296 EDINBURGH ROAD,CASTLECRAG,2068,NSW,North
1A THE TOR WALK,CASTLECRAG,2068,NSW,North
1 THE TOR WALK,CASTLECRAG,2068,NSW,West
3 THE TOR WALK,CASTLECRAG,2068,NSW,West
321 EDINBURGH ROAD,CASTLECRAG,2068,NSW,East
325 EDINBURGH ROAD,CASTLECRAG,2068,NSW,Southeast
327 EDINBURGH ROAD,CASTLECRAG,2068,NSW,Southeast
329 EDINBURGH ROAD,CASTLECRAG,2068,NSW,Southeast
363 EDINBURGH ROAD,CASTLECRAG,2068,NSW,Northeast
365 EDINBURGH ROAD,CASTLECRAG,2068,NSW,West
2 THE LEE,MIDDLE COVE,2068,NSW,South
3 COVELEE CIRCUIT,MIDDLE COVE,2068,NSW,South
1 COVELEE CIRCUIT,MIDDLE COVE,2068,NSW,South
159A EASTERN VALLEY WAY,MIDDLE COVE,2068,NSW,South
159 EASTERN VALLEY WAY,MIDDLE COVE,2068,NSW,South
"UNIT 1, 159 EASTERN VALLEY WAY",MIDDLE COVE,2068,NSW,South
161A EASTERN VALLEY WAY,MIDDLE COVE,2068,NSW,Southwest
"UNIT 1, 161 EASTERN VALLEY WAY",MIDDLE COVE,2068,NSW,Southwest
161B EASTERN VALLEY WAY,MIDDLE COVE,2068,NSW,Southwest
161 EASTERN VALLEY WAY,MIDDLE COVE,2068,NSW,Southwest
1 SUGARLOAF CRESCENT,CASTLECRAG,2068,NSW,South
3 SUGARLOAF CRESCENT,CASTLECRAG,2068,NSW,South
5 SUGARLOAF CRESCENT,CASTLECRAG,2068,NSW,South
155 EASTERN VALLEY WAY,CASTLECRAG,2068,NSW,South
157 EASTERN VALLEY WAY,CASTLECRAG,2068,NSW,South
153 EASTERN VALLEY WAY,CASTLECRAG,2068,NSW,South
6 SUGARLOAF CRESCENT,CASTLECRAG,2068,NSW,North
4 SUGARLOAF CRESCENT,CASTLECRAG,2068,NSW,North
2A SUGARLOAF CRESCENT,CASTLECRAG,2068,NSW,North
2 SUGARLOAF CRESCENT,CASTLECRAG,2068,NSW,North
3 SUNNYSIDE CRESCENT,CASTLECRAG,2068,NSW,Southeast
143 EASTERN VALLEY WAY,CASTLECRAG,2068,NSW,Northwest
5 SUNNYSIDE CRESCENT,CASTLECRAG,2068,NSW,Southeast
3 THE PALISADE,NORTHBRIDGE,2063,NSW,South
15 THE OUTPOST,NORTHBRIDGE,2063,NSW,Northwest
32 THE RAMPART,CASTLECRAG,2068,NSW,North
34 THE RAMPART,CASTLECRAG,2068,NSW,North
36 THE RAMPART,CASTLECRAG,2068,NSW,Northeast
24 THE RAMPART,CASTLECRAG,2068,NSW,North
22 THE RAMPART,CASTLECRAG,2068,NSW,North
20 THE RAMPART,CASTLECRAG,2068,NSW,North
18 THE RAMPART,CASTLECRAG,2068,NSW,North
3 THE REDOUBT,CASTLECRAG,2068,NSW,Northeast
5 THE REDOUBT,CASTLECRAG,2068,NSW,Northeast
9 THE REDOUBT,CASTLECRAG,2068,NSW,Northeast
7 THE REDOUBT,CASTLECRAG,2068,NSW,North
9 THE BARBETTE,CASTLECRAG,2068,NSW,South
7 THE BARBETTE,CASTLECRAG,2068,NSW,Southeast
5 THE BARBETTE,CASTLECRAG,2068,NSW,South
11 THE REDOUBT,CASTLECRAG,2068,NSW,Southwest
13 THE REDOUBT,CASTLECRAG,2068,NSW,South
15 THE REDOUBT,CASTLECRAG,2068,NSW,Southwest
1 THE REDOUBT,CASTLECRAG,2068,NSW,Northeast
4 THE RAMPART,CASTLECRAG,2068,NSW,Northwest
16 THE BARBETTE,CASTLECRAG,2068,NSW,South
18 THE BARBETTE,CASTLECRAG,2068,NSW,South
6 THE RAMPART,CASTLECRAG,2068,NSW,Northwest
13 THE RAMPART,CASTLECRAG,2068,NSW,Northwest
11 THE RAMPART,CASTLECRAG,2068,NSW,Northwest
9 THE RAMPART,CASTLECRAG,2068,NSW,Northwest
7 THE RAMPART,CASTLECRAG,2068,NSW,Northwest
5 THE RAMPART,CASTLECRAG,2068,NSW,West
18 THE PARAPET,CASTLECRAG,2068,NSW,Southeast
22 THE PARAPET,CASTLECRAG,2068,NSW,Southeast
24 THE PARAPET,CASTLECRAG,2068,NSW,South
20 THE PARAPET,CASTLECRAG,2068,NSW,Southeast
30 THE PARAPET,CASTLECRAG,2068,NSW,South
28 THE PARAPET,CASTLECRAG,2068,NSW,South
26 THE PARAPET,CASTLECRAG,2068,NSW,South
25 THE RAMPART,CASTLECRAG,2068,NSW,North
23 THE RAMPART,CASTLECRAG,2068,NSW,North
21 THE RAMPART,CASTLECRAG,2068,NSW,North
19 THE RAMPART,CASTLECRAG,2068,NSW,North
17 THE RAMPART,CASTLECRAG,2068,NSW,Northwest
15 THE RAMPART,CASTLECRAG,2068,NSW,Northwest
8 THE RAMPART,CASTLECRAG,2068,NSW,Northwest
10 THE RAMPART,CASTLECRAG,2068,NSW,Northwest
12 THE RAMPART,CASTLECRAG,2068,NSW,Northwest
16 THE RAMPART,CASTLECRAG,2068,NSW,Northwest
14 THE RAMPART,CASTLECRAG,2068,NSW,Northwest
31 THE RAMPART,CASTLECRAG,2068,NSW,South
27 THE RAMPART,CASTLECRAG,2068,NSW,North
29 THE RAMPART,CASTLECRAG,2068,NSW,North
38 THE RAMPART,CASTLECRAG,2068,NSW,Southeast
40 THE RAMPART,CASTLECRAG,2068,NSW,Northeast
16 THE PARAPET,CASTLECRAG,2068,NSW,Southeast
10A THE POSTERN,CASTLECRAG,2068,NSW,Southeast
10 THE POSTERN,CASTLECRAG,2068,NSW,Southeast
28 MOROTAI CRESCENT,CASTLECRAG,2068,NSW,Northwest
30 MOROTAI CRESCENT,CASTLECRAG,2068,NSW,Northeast
21 MOROTAI CRESCENT,CASTLECRAG,2068,NSW,East
48 THE RAMPART,CASTLECRAG,2068,NSW,Northwest
37 THE RAMPART,CASTLECRAG,2068,NSW,Northeast
35 THE RAMPART,CASTLECRAG,2068,NSW,Northeast
44 THE RAMPART,CASTLECRAG,2068,NSW,Northeast
46 THE RAMPART,CASTLECRAG,2068,NSW,Northeast
44A THE RAMPART,CASTLECRAG,2068,NSW,Northeast
42 THE RAMPART,CASTLECRAG,2068,NSW,Northeast
33A THE RAMPART,CASTLECRAG,2068,NSW,Northeast
33 THE RAMPART,CASTLECRAG,2068,NSW,Northeast
32 THE PARAPET,CASTLECRAG,2068,NSW,South
36 THE PARAPET,CASTLECRAG,2068,NSW,Southwest
34 THE PARAPET,CASTLECRAG,2068,NSW,Southwest
38 THE PARAPET,CASTLECRAG,2068,NSW,Southwest
40 THE PARAPET,CASTLECRAG,2068,NSW,Southwest
39 THE RAMPART,CASTLECRAG,2068,NSW,Northeast
12 THE POSTERN,CASTLECRAG,2068,NSW,Southeast
14 THE POSTERN,CASTLECRAG,2068,NSW,Southeast
16 THE POSTERN,CASTLECRAG,2068,NSW,South
3 THE RAMPART,CASTLECRAG,2068,NSW,Southeast
2 THE RAMPART,CASTLECRAG,2068,NSW,West
10 THE BASTION,CASTLECRAG,2068,NSW,North
12 THE BASTION,CASTLECRAG,2068,NSW,North
16 RAEBURN AVENUE,CASTLECRAG,2068,NSW,East
18 RAEBURN AVENUE,CASTLECRAG,2068,NSW,East
117 EASTERN VALLEY WAY,CASTLECRAG,2068,NSW,East
115 EASTERN VALLEY WAY,CASTLECRAG,2068,NSW,East
113 EASTERN VALLEY WAY,CASTLECRAG,2068,NSW,East
111 EASTERN VALLEY WAY,CASTLECRAG,2068,NSW,East
109 EASTERN VALLEY WAY,CASTLECRAG,2068,NSW,East
105 EASTERN VALLEY WAY,CASTLECRAG,2068,NSW,East
107 EASTERN VALLEY WAY,CASTLECRAG,2068,NSW,East
103 EASTERN VALLEY WAY,CASTLECRAG,2068,NSW,West
101 EASTERN VALLEY WAY,CASTLECRAG,2068,NSW,East
1A MOROTAI CRESCENT,CASTLECRAG,2068,NSW,South
1 MOROTAI CRESCENT,CASTLECRAG,2068,NSW,South
69 EASTERN VALLEY WAY,CASTLECRAG,2068,NSW,South
"UNIT 2, 69 EASTERN VALLEY WAY",CASTLECRAG,2068,NSW,South
"UNIT 1, 69 EASTERN VALLEY WAY",CASTLECRAG,2068,NSW,South
3 MOROTAI CRESCENT,CASTLECRAG,2068,NSW,South
5 MOROTAI CRESCENT,CASTLECRAG,2068,NSW,South
16 MOROTAI CRESCENT,CASTLECRAG,2068,NSW,Northwest
14 MOROTAI CRESCENT,CASTLECRAG,2068,NSW,Northwest
10A THE OUTPOST,NORTHBRIDGE,2063,NSW,Northwest
18 MOROTAI CRESCENT,CASTLECRAG,2068,NSW,Northwest
20 MOROTAI CRESCENT,CASTLECRAG,2068,NSW,Northwest
22 MOROTAI CRESCENT,CASTLECRAG,2068,NSW,Northwest
24 MOROTAI CRESCENT,CASTLECRAG,2068,NSW,Northwest
26 MOROTAI CRESCENT,CASTLECRAG,2068,NSW,Northwest
13 MOROTAI CRESCENT,CASTLECRAG,2068,NSW,Southeast
15 MOROTAI CRESCENT,CASTLECRAG,2068,NSW,Southeast
17 MOROTAI CRESCENT,CASTLECRAG,2068,NSW,Northeast
19 MOROTAI CRESCENT,CASTLECRAG,2068,NSW,Southwest
85 EASTERN VALLEY WAY,CASTLECRAG,2068,NSW,Northwest
89 EASTERN VALLEY WAY,CASTLECRAG,2068,NSW,Southwest
87 EASTERN VALLEY WAY,CASTLECRAG,2068,NSW,Northeast
91 EASTERN VALLEY WAY,CASTLECRAG,2068,NSW,Northwest
"UNIT 2, 91 EASTERN VALLEY WAY",CASTLECRAG,2068,NSW,Northwest
83 EASTERN VALLEY WAY,CASTLECRAG,2068,NSW,Northwest
81 EASTERN VALLEY WAY,CASTLECRAG,2068,NSW,Northwest
79 EASTERN VALLEY WAY,CASTLECRAG,2068,NSW,Northwest
77 EASTERN VALLEY WAY,CASTLECRAG,2068,NSW,Northwest
75 EASTERN VALLEY WAY,CASTLECRAG,2068,NSW,Northwest
73 EASTERN VALLEY WAY,CASTLECRAG,2068,NSW,Northwest
11 MOROTAI CRESCENT,CASTLECRAG,2068,NSW,Southeast
9 MOROTAI CRESCENT,CASTLECRAG,2068,NSW,Southeast
7 MOROTAI CRESCENT,CASTLECRAG,2068,NSW,Southeast
71 EASTERN VALLEY WAY,CASTLECRAG,2068,NSW,Northwest
90 THE BULWARK,CASTLECRAG,2068,NSW,Southwest
92 THE BULWARK,CASTLECRAG,2068,NSW,Southwest
94 THE BULWARK,CASTLECRAG,2068,NSW,Southwest
99 THE BULWARK,CASTLECRAG,2068,NSW,Northeast
101 THE BULWARK,CASTLECRAG,2068,NSW,Northeast
103 THE BULWARK,CASTLECRAG,2068,NSW,North
105 THE BULWARK,CASTLECRAG,2068,NSW,Northeast
107 THE BULWARK,CASTLECRAG,2068,NSW,Northeast
13 THE BASTION,CASTLECRAG,2068,NSW,South
11 THE BASTION,CASTLECRAG,2068,NSW,South
111 THE BULWARK,CASTLECRAG,2068,NSW,Northeast
100 THE BULWARK,CASTLECRAG,2068,NSW,Southwest
98 THE BULWARK,CASTLECRAG,2068,NSW,Southwest
96 THE BULWARK,CASTLECRAG,2068,NSW,Southwest
102 THE BULWARK,CASTLECRAG,2068,NSW,Southwest
11 THE BARBICAN,CASTLECRAG,2068,NSW,South
9 THE BARBICAN,CASTLECRAG,2068,NSW,South
7 THE BARBICAN,CASTLECRAG,2068,NSW,Southwest
5 THE BARBICAN,CASTLECRAG,2068,NSW,Southwest
3 THE BASTION,CASTLECRAG,2068,NSW,Southwest
117 THE BULWARK,CASTLECRAG,2068,NSW,East
106 THE BULWARK,CASTLECRAG,2068,NSW,West
104 THE BULWARK,CASTLECRAG,2068,NSW,West
113 THE BULWARK,CASTLECRAG,2068,NSW,Northeast
115 THE BULWARK,CASTLECRAG,2068,NSW,East
7 THE BASTION,CASTLECRAG,2068,NSW,Southwest
9 THE BASTION,CASTLECRAG,2068,NSW,South
8 THE BASTION,CASTLECRAG,2068,NSW,North
6 THE BASTION,CASTLECRAG,2068,NSW,North
4 THE BASTION,CASTLECRAG,2068,NSW,Northeast
108 THE BULWARK,CASTLECRAG,2068,NSW,West
1 ROCKLEY STREET,CASTLECRAG,2068,NSW,West
119 THE BULWARK,CASTLECRAG,2068,NSW,East
1 THE BASTION,CASTLECRAG,2068,NSW,West
2 THE BASTION,CASTLECRAG,2068,NSW,East
1 THE BARBETTE,CASTLECRAG,2068,NSW,South
3 THE BARBETTE,CASTLECRAG,2068,NSW,Southwest
14 THE BARBETTE,CASTLECRAG,2068,NSW,South
12 THE BARBETTE,CASTLECRAG,2068,NSW,North
8 THE BARBETTE,CASTLECRAG,2068,NSW,Southeast
6 THE BARBETTE,CASTLECRAG,2068,NSW,South
10 THE BARBETTE,CASTLECRAG,2068,NSW,North
4 THE BARBETTE,CASTLECRAG,2068,NSW,East
2 THE BARBETTE,CASTLECRAG,2068,NSW,East
"UNIT 1, 2 THE BARBETTE",CASTLECRAG,2068,NSW,East
12 ROCKLEY STREET,CASTLECRAG,2068,NSW,West
8 ROCKLEY STREET,CASTLECRAG,2068,NSW,North
5 ROCKLEY STREET,CASTLECRAG,2068,NSW,South
7 ROCKLEY STREET,CASTLECRAG,2068,NSW,South
5-7 ROCKLEY STREET,CASTLECRAG,2068,NSW,South
3 THE BARBICAN,CASTLECRAG,2068,NSW,South
1 THE BARBICAN,CASTLECRAG,2068,NSW,South
3 ROCKLEY STREET,CASTLECRAG,2068,NSW,North
23 CHEYNE WALK,CASTLECRAG,2068,NSW,South
21 CHEYNE WALK,CASTLECRAG,2068,NSW,South
17 CHEYNE WALK,CASTLECRAG,2068,NSW,South
13 CHEYNE WALK,CASTLECRAG,2068,NSW,South
15 CHEYNE WALK,CASTLECRAG,2068,NSW,South
11 CHEYNE WALK,CASTLECRAG,2068,NSW,East
9 CHEYNE WALK,CASTLECRAG,2068,NSW,East
7 CHEYNE WALK,CASTLECRAG,2068,NSW,East
16A LINDEN WAY,CASTLECRAG,2068,NSW,Northwest
26 LINDEN WAY,CASTLECRAG,2068,NSW,Northwest
16 LINDEN WAY,CASTLECRAG,2068,NSW,Northwest
28 LINDEN WAY,CASTLECRAG,2068,NSW,South
32 LINDEN WAY,CASTLECRAG,2068,NSW,North
30 LINDEN WAY,CASTLECRAG,2068,NSW,North
19 CHEYNE WALK,CASTLECRAG,2068,NSW,South
25 CHEYNE WALK,CASTLECRAG,2068,NSW,Southwest
27 CHEYNE WALK,CASTLECRAG,2068,NSW,South
29 CHEYNE WALK,CASTLECRAG,2068,NSW,South
31 CHEYNE WALK,CASTLECRAG,2068,NSW,South
38 LINDEN WAY,CASTLECRAG,2068,NSW,North
34 LINDEN WAY,CASTLECRAG,2068,NSW,Northeast
36 LINDEN WAY,CASTLECRAG,2068,NSW,Northeast
46 LINDEN WAY,CASTLECRAG,2068,NSW,North
54 LINDEN WAY,CASTLECRAG,2068,NSW,Northeast
48 LINDEN WAY,CASTLECRAG,2068,NSW,North
52 LINDEN WAY,CASTLECRAG,2068,NSW,North
44 LINDEN WAY,CASTLECRAG,2068,NSW,North
42 LINDEN WAY,CASTLECRAG,2068,NSW,North
40 LINDEN WAY,CASTLECRAG,2068,NSW,Northeast
19 LINDEN WAY,CASTLECRAG,2068,NSW,West
11 LINDEN WAY,CASTLECRAG,2068,NSW,Northeast
17 LINDEN WAY,CASTLECRAG,2068,NSW,South
50 LINDEN WAY,CASTLECRAG,2068,NSW,Southeast
13 LINDEN WAY,CASTLECRAG,2068,NSW,South
15 LINDEN WAY,CASTLECRAG,2068,NSW,South
5 CHEYNE WALK,CASTLECRAG,2068,NSW,East
3 CHEYNE WALK,CASTLECRAG,2068,NSW,Northeast
3A CHEYNE WALK,CASTLECRAG,2068,NSW,Northeast
153 EDINBURGH ROAD,CASTLECRAG,2068,NSW,South
170 EDINBURGH ROAD,CASTLECRAG,2068,NSW,Northwest
68 LINDEN WAY,CASTLECRAG,2068,NSW,Northeast
168 EDINBURGH ROAD,CASTLECRAG,2068,NSW,Northwest
7 THE TOR WALK,CASTLECRAG,2068,NSW,West
26 THE BATTLEMENT,CASTLECRAG,2068,NSW,Southeast
292 EDINBURGH ROAD,CASTLECRAG,2068,NSW,West
5 THE TOR WALK,CASTLECRAG,2068,NSW,West
172 EDINBURGH ROAD,CASTLECRAG,2068,NSW,Northwest
174 EDINBURGH ROAD,CASTLECRAG,2068,NSW,Northwest
176 EDINBURGH ROAD,CASTLECRAG,2068,NSW,Northwest
178 EDINBURGH ROAD,CASTLECRAG,2068,NSW,Northwest
163 EDINBURGH ROAD,CASTLECRAG,2068,NSW,Southeast
161 EDINBURGH ROAD,CASTLECRAG,2068,NSW,Southeast
159 EDINBURGH ROAD,CASTLECRAG,2068,NSW,Southeast
48 SUNNYSIDE CRESCENT,CASTLECRAG,2068,NSW,Northwest
8B THE TOR WALK,CASTLECRAG,2068,NSW,West
12 THE TOR WALK,CASTLECRAG,2068,NSW,West
8A THE TOR WALK,CASTLECRAG,2068,NSW,West
8 THE TOR WALK,CASTLECRAG,2068,NSW,West
37 SUGARLOAF CRESCENT,CASTLECRAG,2068,NSW,Southeast
276 EDINBURGH ROAD,CASTLECRAG,2068,NSW,Southeast
5 THE HIGH TOR,CASTLECRAG,2068,NSW,East
35A LINDEN WAY,CASTLECRAG,2068,NSW,East
240 EDINBURGH ROAD,CASTLECRAG,2068,NSW,North
64 SUGARLOAF CRESCENT,CASTLECRAG,2068,NSW,Southwest
79 SUNNYSIDE CRESCENT,CASTLECRAG,2068,NSW,Southeast
65 SUNNYSIDE CRESCENT,CASTLECRAG,2068,NSW,Southwest
67 SUNNYSIDE CRESCENT,CASTLECRAG,2068,NSW,Southwest
69 SUNNYSIDE CRESCENT,CASTLECRAG,2068,NSW,Southwest
71 SUNNYSIDE CRESCENT,CASTLECRAG,2068,NSW,Southwest
16 SUNNYSIDE CRESCENT,CASTLECRAG,2068,NSW,Northeast
38 SUNNYSIDE CRESCENT,CASTLECRAG,2068,NSW,Northwest
36 SUNNYSIDE CRESCENT,CASTLECRAG,2068,NSW,Northwest
40 SUNNYSIDE CRESCENT,CASTLECRAG,2068,NSW,Northwest
42 SUNNYSIDE CRESCENT,CASTLECRAG,2068,NSW,Northwest
75 SUNNYSIDE CRESCENT,CASTLECRAG,2068,NSW,South
77 SUNNYSIDE CRESCENT,CASTLECRAG,2068,NSW,South
46 SUNNYSIDE CRESCENT,CASTLECRAG,2068,NSW,Northwest
278 EDINBURGH ROAD,CASTLECRAG,2068,NSW,East
6 THE TOR WALK,CASTLECRAG,2068,NSW,East
35 SUGARLOAF CRESCENT,CASTLECRAG,2068,NSW,South
278A EDINBURGH ROAD,CASTLECRAG,2068,NSW,Northeast
44 SUNNYSIDE CRESCENT,CASTLECRAG,2068,NSW,Northwest
44A SUNNYSIDE CRESCENT,CASTLECRAG,2068,NSW,Northwest
157 EDINBURGH ROAD,CASTLECRAG,2068,NSW,Southeast
31 SUGARLOAF CRESCENT,CASTLECRAG,2068,NSW,Southwest
155 EDINBURGH ROAD,CASTLECRAG,2068,NSW,Southeast
274 EDINBURGH ROAD,CASTLECRAG,2068,NSW,Southeast
1 THE HIGH TOR,CASTLECRAG,2068,NSW,Northeast
2 THE HIGH TOR,CASTLECRAG,2068,NSW,West
3 THE HIGH TOR,CASTLECRAG,2068,NSW,East
151 EDINBURGH ROAD,CASTLECRAG,2068,NSW,Southeast
37A LINDEN WAY,CASTLECRAG,2068,NSW,Southwest
37 LINDEN WAY,CASTLECRAG,2068,NSW,Southwest
33 SUGARLOAF CRESCENT,CASTLECRAG,2068,NSW,South
261 EDINBURGH ROAD,CASTLECRAG,2068,NSW,South
265 EDINBURGH ROAD,CASTLECRAG,2068,NSW,South
257 EDINBURGH ROAD,CASTLECRAG,2068,NSW,South
273 EDINBURGH ROAD,CASTLECRAG,2068,NSW,South
275 EDINBURGH ROAD,CASTLECRAG,2068,NSW,South
287 EDINBURGH ROAD,CASTLECRAG,2068,NSW,South
289 EDINBURGH ROAD,CASTLECRAG,2068,NSW,South
269 EDINBURGH ROAD,CASTLECRAG,2068,NSW,South
39 LINDEN WAY,CASTLECRAG,2068,NSW,Southwest
319 EDINBURGH ROAD,CASTLECRAG,2068,NSW,Southeast
317-321 EDINBURGH ROAD,CASTLECRAG,2068,NSW,Southeast
315 EDINBURGH ROAD,CASTLECRAG,2068,NSW,Southeast
286 EDINBURGH ROAD,CASTLECRAG,2068,NSW,West
288 EDINBURGH ROAD,CASTLECRAG,2068,NSW,Northwest
311-313 EDINBURGH ROAD,CASTLECRAG,2068,NSW,East
9 THE TOR WALK,CASTLECRAG,2068,NSW,West
2A THE TOR WALK,CASTLECRAG,2068,NSW,East
13 THE TOR WALK,CASTLECRAG,2068,NSW,Southwest
11 THE TOR WALK,CASTLECRAG,2068,NSW,Southwest
7B THE TOR WALK,CASTLECRAG,2068,NSW,West
290 EDINBURGH ROAD,CASTLECRAG,2068,NSW,Northwest
7A THE TOR WALK,CASTLECRAG,2068,NSW,West
40 SUGARLOAF CRESCENT,CASTLECRAG,2068,NSW,Northeast
70 LINDEN WAY,CASTLECRAG,2068,NSW,Northeast
25 THE TOR WALK,CASTLECRAG,2068,NSW,West
23A THE TOR WALK,CASTLECRAG,2068,NSW,Southwest
23 THE TOR WALK,CASTLECRAG,2068,NSW,Southwest
19 THE TOR WALK,CASTLECRAG,2068,NSW,Southwest
19-21 THE TOR WALK,CASTLECRAG,2068,NSW,Southwest
19-23 THE TOR WALK,CASTLECRAG,2068,NSW,Southwest
17 THE TOR WALK,CASTLECRAG,2068,NSW,Southwest
15 THE TOR WALK,CASTLECRAG,2068,NSW,Southwest
2 THE TOR WALK,CASTLECRAG,2068,NSW,Northeast
4B THE TOR WALK,CASTLECRAG,2068,NSW,Northeast
4 THE TOR WALK,CASTLECRAG,2068,NSW,Northeast
4A THE TOR WALK,CASTLECRAG,2068,NSW,Southeast
282 EDINBURGH ROAD,CASTLECRAG,2068,NSW,West
284 EDINBURGH ROAD,CASTLECRAG,2068,NSW,West
299 EDINBURGH ROAD,CASTLECRAG,2068,NSW,South
297 EDINBURGH ROAD,CASTLECRAG,2068,NSW,South
303 EDINBURGH ROAD,CASTLECRAG,2068,NSW,South
295 EDINBURGH ROAD,CASTLECRAG,2068,NSW,South
291 EDINBURGH ROAD,CASTLECRAG,2068,NSW,South
301 EDINBURGH ROAD,CASTLECRAG,2068,NSW,East
280 EDINBURGH ROAD,CASTLECRAG,2068,NSW,West
2A THE HIGH TOR,CASTLECRAG,2068,NSW,West
272A EDINBURGH ROAD,CASTLECRAG,2068,NSW,West
266 EDINBURGH ROAD,CASTLECRAG,2068,NSW,North
270 EDINBURGH ROAD,CASTLECRAG,2068,NSW,Northeast
149 EDINBURGH ROAD,CASTLECRAG,2068,NSW,South
35 LINDEN WAY,CASTLECRAG,2068,NSW,West
66 LINDEN WAY,CASTLECRAG,2068,NSW,East
7 THE HIGH TOR,CASTLECRAG,2068,NSW,Southwest
7A THE HIGH TOR,CASTLECRAG,2068,NSW,Southwest
4A THE HIGH TOR,CASTLECRAG,2068,NSW,East
4 THE HIGH TOR,CASTLECRAG,2068,NSW,West
18 THE TOR WALK,CASTLECRAG,2068,NSW,East
18A THE TOR WALK,CASTLECRAG,2068,NSW,East
22 THE TOR WALK,CASTLECRAG,2068,NSW,West
20 THE TOR WALK,CASTLECRAG,2068,NSW,East
20A THE TOR WALK,CASTLECRAG,2068,NSW,East
24 THE TOR WALK,CASTLECRAG,2068,NSW,West
28 THE TOR WALK,CASTLECRAG,2068,NSW,West
26 THE TOR WALK,CASTLECRAG,2068,NSW,East
39 THE TOR WALK,CASTLECRAG,2068,NSW,West
41 THE TOR WALK,CASTLECRAG,2068,NSW,West
37 THE TOR WALK,CASTLECRAG,2068,NSW,Northwest
35 THE TOR WALK,CASTLECRAG,2068,NSW,West
33 THE TOR WALK,CASTLECRAG,2068,NSW,West
16 THE TOR WALK,CASTLECRAG,2068,NSW,East
14 THE TOR WALK,CASTLECRAG,2068,NSW,Northwest
8 CHEYNE WALK,CASTLECRAG,2068,NSW,Southwest
1 CHEYNE WALK,CASTLECRAG,2068,NSW,Northeast
9 LINDEN WAY,CASTLECRAG,2068,NSW,East
23A LINDEN WAY,CASTLECRAG,2068,NSW,West
21 LINDEN WAY,CASTLECRAG,2068,NSW,Southwest
7 LINDEN WAY,CASTLECRAG,2068,NSW,East
3A LINDEN WAY,CASTLECRAG,2068,NSW,East
5 LINDEN WAY,CASTLECRAG,2068,NSW,East
6 LINDEN WAY,CASTLECRAG,2068,NSW,Northeast
6 CHEYNE WALK,CASTLECRAG,2068,NSW,Southwest
4 CHEYNE WALK,CASTLECRAG,2068,NSW,Southwest
2 CHEYNE WALK,CASTLECRAG,2068,NSW,Southwest
2A CHEYNE WALK,CASTLECRAG,2068,NSW,Southwest
2 LINDEN WAY,CASTLECRAG,2068,NSW,Southwest
4 LINDEN WAY,CASTLECRAG,2068,NSW,West
43 THE TOR WALK,CASTLECRAG,2068,NSW,West
1 LINDEN WAY,CASTLECRAG,2068,NSW,East
30 THE TOR WALK,CASTLECRAG,2068,NSW,Northwest
13 THE HIGH TOR,CASTLECRAG,2068,NSW,East
6 THE HIGH TOR,CASTLECRAG,2068,NSW,South
4B THE HIGH TOR,CASTLECRAG,2068,NSW,East
9 THE HIGH TOR,CASTLECRAG,2068,NSW,East
11 THE HIGH TOR,CASTLECRAG,2068,NSW,East
31 LINDEN WAY,CASTLECRAG,2068,NSW,South
29 LINDEN WAY,CASTLECRAG,2068,NSW,South
33 LINDEN WAY,CASTLECRAG,2068,NSW,South
60 LINDEN WAY,CASTLECRAG,2068,NSW,East
27 LINDEN WAY,CASTLECRAG,2068,NSW,Southwest
15 THE HIGH TOR,CASTLECRAG,2068,NSW,Northwest
23 LINDEN WAY,CASTLECRAG,2068,NSW,Southwest
25 LINDEN WAY,CASTLECRAG,2068,NSW,North
8B THE BULWARK,CASTLECRAG,2068,NSW,North
10 THE BULWARK,CASTLECRAG,2068,NSW,Northeast
8A THE BULWARK,CASTLECRAG,2068,NSW,North
9 KNIGHT PLACE,CASTLECRAG,2068,NSW,Northwest
12 KNIGHT PLACE,CASTLECRAG,2068,NSW,Northwest
6 THE BULWARK,CASTLECRAG,2068,NSW,Southwest
10A THE BULWARK,CASTLECRAG,2068,NSW,East
10C THE BULWARK,CASTLECRAG,2068,NSW,West
12 THE BULWARK,CASTLECRAG,2068,NSW,East
31 THE SCARP,CASTLECRAG,2068,NSW,East
34 THE SCARP,CASTLECRAG,2068,NSW,West
10B THE BULWARK,CASTLECRAG,2068,NSW,West
36 THE SCARP,CASTLECRAG,2068,NSW,West
22 THE BULWARK,CASTLECRAG,2068,NSW,North
18 THE BULWARK,CASTLECRAG,2068,NSW,East
16 THE BULWARK,CASTLECRAG,2068,NSW,East
32 THE SCARP,CASTLECRAG,2068,NSW,South
14 THE BULWARK,CASTLECRAG,2068,NSW,East
4 THE BULWARK,CASTLECRAG,2068,NSW,West
242 EDINBURGH ROAD,CASTLECRAG,2068,NSW,North
10 KNIGHT PLACE,CASTLECRAG,2068,NSW,Northwest
56 LINDEN WAY,CASTLECRAG,2068,NSW,East
58 LINDEN WAY,CASTLECRAG,2068,NSW,East
8 KNIGHT PLACE,CASTLECRAG,2068,NSW,West
2A THE BULWARK,CASTLECRAG,2068,NSW,East
2 THE BULWARK,CASTLECRAG,2068,NSW,East
7 KNIGHT PLACE,CASTLECRAG,2068,NSW,West
6 KNIGHT PLACE,CASTLECRAG,2068,NSW,West
62 LINDEN WAY,CASTLECRAG,2068,NSW,East
64 LINDEN WAY,CASTLECRAG,2068,NSW,East
4 KNIGHT PLACE,CASTLECRAG,2068,NSW,West
5 KNIGHT PLACE,CASTLECRAG,2068,NSW,West
1B THE BULWARK,CASTLECRAG,2068,NSW,East
1 THE BULWARK,CASTLECRAG,2068,NSW,East
3 THE BULWARK,CASTLECRAG,2068,NSW,East
5 THE BULWARK,CASTLECRAG,2068,NSW,North
2 KNIGHT PLACE,CASTLECRAG,2068,NSW,West
3 KNIGHT PLACE,CASTLECRAG,2068,NSW,West
1 KNIGHT PLACE,CASTLECRAG,2068,NSW,West
256 EDINBURGH ROAD,CASTLECRAG,2068,NSW,North
260 EDINBURGH ROAD,CASTLECRAG,2068,NSW,North
262 EDINBURGH ROAD,CASTLECRAG,2068,NSW,North
72 LINDEN WAY,CASTLECRAG,2068,NSW,Northeast
258 EDINBURGH ROAD,CASTLECRAG,2068,NSW,North
254 EDINBURGH ROAD,CASTLECRAG,2068,NSW,West
244 EDINBURGH ROAD,CASTLECRAG,2068,NSW,East
29 THE SCARP,CASTLECRAG,2068,NSW,East
8 THE BULWARK,CASTLECRAG,2068,NSW,North
8C THE BULWARK,CASTLECRAG,2068,NSW,Northeast
35 THE SCARP,CASTLECRAG,2068,NSW,Northeast
27C THE SCARP,CASTLECRAG,2068,NSW,Southwest
27B THE SCARP,CASTLECRAG,2068,NSW,North
41 THE SCARP,CASTLECRAG,2068,NSW,Northeast
43 THE SCARP,CASTLECRAG,2068,NSW,Northeast
39 THE SCARP,CASTLECRAG,2068,NSW,Northeast
37 THE SCARP,CASTLECRAG,2068,NSW,Northeast
42 SUGARLOAF CRESCENT,CASTLECRAG,2068,NSW,Northeast
44 SUGARLOAF CRESCENT,CASTLECRAG,2068,NSW,North
46 SUGARLOAF CRESCENT,CASTLECRAG,2068,NSW,North
48 SUGARLOAF CRESCENT,CASTLECRAG,2068,NSW,North
50 SUGARLOAF CRESCENT,CASTLECRAG,2068,NSW,South
52 SUGARLOAF CRESCENT,CASTLECRAG,2068,NSW,South
56 SUGARLOAF CRESCENT,CASTLECRAG,2068,NSW,Northwest
58 SUGARLOAF CRESCENT,CASTLECRAG,2068,NSW,Northwest
60 SUGARLOAF CRESCENT,CASTLECRAG,2068,NSW,Northwest
54 SUGARLOAF CRESCENT,CASTLECRAG,2068,NSW,Northwest
39 SUNNYSIDE CRESCENT,CASTLECRAG,2068,NSW,Southwest
41 SUNNYSIDE CRESCENT,CASTLECRAG,2068,NSW,Southwest
43 SUNNYSIDE CRESCENT,CASTLECRAG,2068,NSW,South
51 SUNNYSIDE CRESCENT,CASTLECRAG,2068,NSW,South
49 SUNNYSIDE CRESCENT,CASTLECRAG,2068,NSW,South
47 SUNNYSIDE CRESCENT,CASTLECRAG,2068,NSW,South
45 SUNNYSIDE CRESCENT,CASTLECRAG,2068,NSW,South
37 SUNNYSIDE CRESCENT,CASTLECRAG,2068,NSW,Southwest
35 SUNNYSIDE CRESCENT,CASTLECRAG,2068,NSW,Southwest
4 SUNNYSIDE CRESCENT,CASTLECRAG,2068,NSW,Northeast
25 RUTLAND AVENUE,CASTLECRAG,2068,NSW,West
26 CHARLES STREET,CASTLECRAG,2068,NSW,East
24 CHARLES STREET,CASTLECRAG,2068,NSW,East
23 RUTLAND AVENUE,CASTLECRAG,2068,NSW,West
21 RUTLAND AVENUE,CASTLECRAG,2068,NSW,West
19 RUTLAND AVENUE,CASTLECRAG,2068,NSW,West
20 CHARLES STREET,CASTLECRAG,2068,NSW,East
22 CHARLES STREET,CASTLECRAG,2068,NSW,East
19 CHARLES STREET,CASTLECRAG,2068,NSW,West
17 CHARLES STREET,CASTLECRAG,2068,NSW,West
14 SUNNYSIDE CRESCENT,CASTLECRAG,2068,NSW,Northeast
12 SUNNYSIDE CRESCENT,CASTLECRAG,2068,NSW,Northeast
10 SUNNYSIDE CRESCENT,CASTLECRAG,2068,NSW,Northeast
21 CHARLES STREET,CASTLECRAG,2068,NSW,West
63 SUNNYSIDE CRESCENT,CASTLECRAG,2068,NSW,Southwest
61 SUNNYSIDE CRESCENT,CASTLECRAG,2068,NSW,Southwest
23 CHARLES STREET,CASTLECRAG,2068,NSW,Northeast
8 SUNNYSIDE CRESCENT,CASTLECRAG,2068,NSW,North
6 SUNNYSIDE CRESCENT,CASTLECRAG,2068,NSW,North
8A SUNNYSIDE CRESCENT,CASTLECRAG,2068,NSW,North
53 SUNNYSIDE CRESCENT,CASTLECRAG,2068,NSW,South
55 SUNNYSIDE CRESCENT,CASTLECRAG,2068,NSW,South
57 SUNNYSIDE CRESCENT,CASTLECRAG,2068,NSW,Southwest
59 SUNNYSIDE CRESCENT,CASTLECRAG,2068,NSW,Southwest
81 SUNNYSIDE CRESCENT,CASTLECRAG,2068,NSW,East
83 SUNNYSIDE CRESCENT,CASTLECRAG,2068,NSW,East
48A SUNNYSIDE CRESCENT,CASTLECRAG,2068,NSW,Northwest
50 SUNNYSIDE CRESCENT,CASTLECRAG,2068,NSW,Northwest
52 SUNNYSIDE CRESCENT,CASTLECRAG,2068,NSW,Northwest
54 SUNNYSIDE CRESCENT,CASTLECRAG,2068,NSW,Northwest
58 SUNNYSIDE CRESCENT,CASTLECRAG,2068,NSW,Northeast
165 EDINBURGH ROAD,CASTLECRAG,2068,NSW,Northeast
56 SUNNYSIDE CRESCENT,CASTLECRAG,2068,NSW,Northwest
165A EDINBURGH ROAD,CASTLECRAG,2068,NSW,Southeast
167 EDINBURGH ROAD,CASTLECRAG,2068,NSW,Southeast
169 EDINBURGH ROAD,CASTLECRAG,2068,NSW,Southeast
95A SUNNYSIDE CRESCENT,CASTLECRAG,2068,NSW,Northeast
95 SUNNYSIDE CRESCENT,CASTLECRAG,2068,NSW,North
89-93 SUNNYSIDE CRESCENT,CASTLECRAG,2068,NSW,Northwest
97 SUNNYSIDE CRESCENT,CASTLECRAG,2068,NSW,Southwest
73 SUNNYSIDE CRESCENT,CASTLECRAG,2068,NSW,Southwest
76 SUGARLOAF CRESCENT,CASTLECRAG,2068,NSW,Northeast
74 SUGARLOAF CRESCENT,CASTLECRAG,2068,NSW,East
72 SUGARLOAF CRESCENT,CASTLECRAG,2068,NSW,East
70 SUGARLOAF CRESCENT,CASTLECRAG,2068,NSW,East
66 SUGARLOAF CRESCENT,CASTLECRAG,2068,NSW,Southwest
39 SUGARLOAF CRESCENT,CASTLECRAG,2068,NSW,Southeast
38 SUGARLOAF CRESCENT,CASTLECRAG,2068,NSW,Northeast
23 SUGARLOAF CRESCENT,CASTLECRAG,2068,NSW,South
12 LINCOLN AVENUE,CASTLECRAG,2068,NSW,South
55 SUGARLOAF CRESCENT,CASTLECRAG,2068,NSW,Northeast
51 SUGARLOAF CRESCENT,CASTLECRAG,2068,NSW,Northeast
49 SUGARLOAF CRESCENT,CASTLECRAG,2068,NSW,Northeast
47 SUGARLOAF CRESCENT,CASTLECRAG,2068,NSW,Northeast
25 SUGARLOAF CRESCENT,CASTLECRAG,2068,NSW,Southwest
27 SUGARLOAF CRESCENT,CASTLECRAG,2068,NSW,Southwest
29 SUGARLOAF CRESCENT,CASTLECRAG,2068,NSW,Southwest
43 SUGARLOAF CRESCENT,CASTLECRAG,2068,NSW,East
41 SUGARLOAF CRESCENT,CASTLECRAG,2068,NSW,East
45 SUGARLOAF CRESCENT,CASTLECRAG,2068,NSW,Northeast
84 SUGARLOAF CRESCENT,CASTLECRAG,2068,NSW,Southwest
90 SUGARLOAF CRESCENT,CASTLECRAG,2068,NSW,Southwest
92 SUGARLOAF CRESCENT,CASTLECRAG,2068,NSW,Southwest
59 SUGARLOAF CRESCENT,CASTLECRAG,2068,NSW,Northeast
57 SUGARLOAF CRESCENT,CASTLECRAG,2068,NSW,Northeast
53 SUGARLOAF CRESCENT,CASTLECRAG,2068,NSW,Northeast
21 LINCOLN AVENUE,CASTLECRAG,2068,NSW,Northeast
19 LINCOLN AVENUE,CASTLECRAG,2068,NSW,Northeast
61 SUGARLOAF CRESCENT,CASTLECRAG,2068,NSW,Northeast
104 SUGARLOAF CRESCENT,CASTLECRAG,2068,NSW,Southwest
102 SUGARLOAF CRESCENT,CASTLECRAG,2068,NSW,Southwest
100 SUGARLOAF CRESCENT,CASTLECRAG,2068,NSW,Southwest
98 SUGARLOAF CRESCENT,CASTLECRAG,2068,NSW,Southwest
96 SUGARLOAF CRESCENT,CASTLECRAG,2068,NSW,Southwest
94 SUGARLOAF CRESCENT,CASTLECRAG,2068,NSW,Southwest
80 SUGARLOAF CRESCENT,CASTLECRAG,2068,NSW,East
189 EDINBURGH ROAD,CASTLECRAG,2068,NSW,South
187 EDINBURGH ROAD,CASTLECRAG,2068,NSW,South
"UNIT 1R, 185 EDINBURGH ROAD",CASTLECRAG,2068,NSW,South
185 EDINBURGH ROAD,CASTLECRAG,2068,NSW,South
193 EDINBURGH ROAD,CASTLECRAG,2068,NSW,South
191 EDINBURGH ROAD,CASTLECRAG,2068,NSW,East
181 EDINBURGH ROAD,CASTLECRAG,2068,NSW,South
179 EDINBURGH ROAD,CASTLECRAG,2068,NSW,South
173 EDINBURGH ROAD,CASTLECRAG,2068,NSW,South
177 EDINBURGH ROAD,CASTLECRAG,2068,NSW,South
183 EDINBURGH ROAD,CASTLECRAG,2068,NSW,South
171 EDINBURGH ROAD,CASTLECRAG,2068,NSW,West
194 EDINBURGH ROAD,CASTLECRAG,2068,NSW,North
192 EDINBURGH ROAD,CASTLECRAG,2068,NSW,North
1 THE CITADEL,CASTLECRAG,2068,NSW,West
190 EDINBURGH ROAD,CASTLECRAG,2068,NSW,Northeast
188 EDINBURGH ROAD,CASTLECRAG,2068,NSW,North
184 EDINBURGH ROAD,CASTLECRAG,2068,NSW,North
182 EDINBURGH ROAD,CASTLECRAG,2068,NSW,Northwest
180 EDINBURGH ROAD,CASTLECRAG,2068,NSW,Northwest
32 THE BATTLEMENT,CASTLECRAG,2068,NSW,Southeast
44 RAEBURN AVENUE,CASTLECRAG,2068,NSW,East
34 THE BATTLEMENT,CASTLECRAG,2068,NSW,South
38 THE BATTLEMENT,CASTLECRAG,2068,NSW,Southeast
36 THE BATTLEMENT,CASTLECRAG,2068,NSW,South
40 THE BATTLEMENT,CASTLECRAG,2068,NSW,East
7 THE CITADEL,CASTLECRAG,2068,NSW,South
5 THE CITADEL,CASTLECRAG,2068,NSW,West
3 THE CITADEL,CASTLECRAG,2068,NSW,West
37 THE BATTLEMENT,CASTLECRAG,2068,NSW,North
11 THE CITADEL,CASTLECRAG,2068,NSW,North
9 THE CITADEL,CASTLECRAG,2068,NSW,North
30 THE BATTLEMENT,CASTLECRAG,2068,NSW,Southeast
28 THE BATTLEMENT,CASTLECRAG,2068,NSW,Southeast
33 THE BATTLEMENT,CASTLECRAG,2068,NSW,Northwest
35 THE BATTLEMENT,CASTLECRAG,2068,NSW,North
31 THE BATTLEMENT,CASTLECRAG,2068,NSW,Southeast
29 THE BATTLEMENT,CASTLECRAG,2068,NSW,Southeast
27 THE CITADEL,CASTLECRAG,2068,NSW,Southwest
25 THE CITADEL,CASTLECRAG,2068,NSW,Southwest
23 THE CITADEL,CASTLECRAG,2068,NSW,Southwest
21 THE CITADEL,CASTLECRAG,2068,NSW,Southwest
19 THE CITADEL,CASTLECRAG,2068,NSW,Northeast
77 THE BULWARK,CASTLECRAG,2068,NSW,Northeast
75 THE BULWARK,CASTLECRAG,2068,NSW,Northeast
79 THE BULWARK,CASTLECRAG,2068,NSW,North
27 THE BATTLEMENT,CASTLECRAG,2068,NSW,Southeast
25 THE BATTLEMENT,CASTLECRAG,2068,NSW,Southeast
23 THE BATTLEMENT,CASTLECRAG,2068,NSW,Southeast
"UNIT 2, 81 THE BULWARK",CASTLECRAG,2068,NSW,Northwest
81 THE BULWARK,CASTLECRAG,2068,NSW,Northwest
"UNIT 1, 81 THE BULWARK",CASTLECRAG,2068,NSW,Northwest
83 THE BULWARK,CASTLECRAG,2068,NSW,Northwest
85 THE BULWARK,CASTLECRAG,2068,NSW,Northwest
87 THE BULWARK,CASTLECRAG,2068,NSW,Northwest
80 THE BULWARK,CASTLECRAG,2068,NSW,North
67 THE BULWARK,CASTLECRAG,2068,NSW,South
69 THE BULWARK,CASTLECRAG,2068,NSW,North
71 THE BULWARK,CASTLECRAG,2068,NSW,Northeast
73 THE BULWARK,CASTLECRAG,2068,NSW,Northeast
68 THE BULWARK,CASTLECRAG,2068,NSW,North
80A THE BULWARK,CASTLECRAG,2068,NSW,Northeast
70-72 THE BULWARK,CASTLECRAG,2068,NSW,North
78 THE BULWARK,CASTLECRAG,2068,NSW,Northeast
76 THE BULWARK,CASTLECRAG,2068,NSW,Northeast
74 THE BULWARK,CASTLECRAG,2068,NSW,Northeast
82 THE BULWARK,CASTLECRAG,2068,NSW,Northwest
89 THE BULWARK,CASTLECRAG,2068,NSW,Northwest
91 THE BULWARK,CASTLECRAG,2068,NSW,East
84 THE BULWARK,CASTLECRAG,2068,NSW,Northwest
86 THE BULWARK,CASTLECRAG,2068,NSW,Northwest
88 THE BULWARK,CASTLECRAG,2068,NSW,South
88A THE BULWARK,CASTLECRAG,2068,NSW,Southwest
196 EDINBURGH ROAD,CASTLECRAG,2068,NSW,North
198 EDINBURGH ROAD,CASTLECRAG,2068,NSW,East
198A EDINBURGH ROAD,CASTLECRAG,2068,NSW,East
197 EDINBURGH ROAD,CASTLECRAG,2068,NSW,South
15 THE CITADEL,CASTLECRAG,2068,NSW,Southwest
63 THE BULWARK,CASTLECRAG,2068,NSW,South
4 THE BARTIZAN,CASTLECRAG,2068,NSW,East
64 THE BULWARK,CASTLECRAG,2068,NSW,North
66 THE BULWARK,CASTLECRAG,2068,NSW,North
6 THE LEE,MIDDLE COVE,2068,NSW,South
4 THE LEE,MIDDLE COVE,2068,NSW,South
11 SUGARLOAF CRESCENT,CASTLECRAG,2068,NSW,South
9 SUGARLOAF CRESCENT,CASTLECRAG,2068,NSW,South
7 SUGARLOAF CRESCENT,CASTLECRAG,2068,NSW,South
10 SUGARLOAF CRESCENT,CASTLECRAG,2068,NSW,North
8 SUGARLOAF CRESCENT,CASTLECRAG,2068,NSW,North
9 SUNNYSIDE CRESCENT,CASTLECRAG,2068,NSW,North
7 SUNNYSIDE CRESCENT,CASTLECRAG,2068,NSW,Southeast
131 EASTERN VALLEY WAY,CASTLECRAG,2068,NSW,East
133 EASTERN VALLEY WAY,CASTLECRAG,2068,NSW,East
135 EASTERN VALLEY WAY,CASTLECRAG,2068,NSW,Northwest
"UNIT 1, 135 EASTERN VALLEY WAY",CASTLECRAG,2068,NSW,Northwest
137 EASTERN VALLEY WAY,CASTLECRAG,2068,NSW,Northwest
139 EASTERN VALLEY WAY,CASTLECRAG,2068,NSW,Northwest
141 EASTERN VALLEY WAY,CASTLECRAG,2068,NSW,Northwest
46 RAEBURN AVENUE,CASTLECRAG,2068,NSW,East
45 RAEBURN AVENUE,CASTLECRAG,2068,NSW,Northeast
42 RAEBURN AVENUE,CASTLECRAG,2068,NSW,East
41 RAEBURN AVENUE,CASTLECRAG,2068,NSW,West
43 RAEBURN AVENUE,CASTLECRAG,2068,NSW,Northeast
29 SUNNYSIDE CRESCENT,CASTLECRAG,2068,NSW,Southwest
31 SUNNYSIDE CRESCENT,CASTLECRAG,2068,NSW,Southwest
27 SUNNYSIDE CRESCENT,CASTLECRAG,2068,NSW,Southwest
25 SUNNYSIDE CRESCENT,CASTLECRAG,2068,NSW,Southwest
23 SUNNYSIDE CRESCENT,CASTLECRAG,2068,NSW,Southwest
36 RUTLAND AVENUE,CASTLECRAG,2068,NSW,Northeast
2A SUNNYSIDE CRESCENT,CASTLECRAG,2068,NSW,Northeast
2 SUNNYSIDE CRESCENT,CASTLECRAG,2068,NSW,Northeast
38 RUTLAND AVENUE,CASTLECRAG,2068,NSW,Northeast
39 RAEBURN AVENUE,CASTLECRAG,2068,NSW,West
40 RAEBURN AVENUE,CASTLECRAG,2068,NSW,East
38 RAEBURN AVENUE,CASTLECRAG,2068,NSW,East
37 RAEBURN AVENUE,CASTLECRAG,2068,NSW,West
35 RAEBURN AVENUE,CASTLECRAG,2068,NSW,West
36 RAEBURN AVENUE,CASTLECRAG,2068,NSW,East
34 RAEBURN AVENUE,CASTLECRAG,2068,NSW,East
32 RAEBURN AVENUE,CASTLECRAG,2068,NSW,East
31 RAEBURN AVENUE,CASTLECRAG,2068,NSW,West
33 RAEBURN AVENUE,CASTLECRAG,2068,NSW,West
34 RUTLAND AVENUE,CASTLECRAG,2068,NSW,East
32 RUTLAND AVENUE,CASTLECRAG,2068,NSW,East
"UNIT 1, 29 RAEBURN AVENUE",CASTLECRAG,2068,NSW,West
29 RAEBURN AVENUE,CASTLECRAG,2068,NSW,West
30 RUTLAND AVENUE,CASTLECRAG,2068,NSW,East
28 RUTLAND AVENUE,CASTLECRAG,2068,NSW,East
27 RAEBURN AVENUE,CASTLECRAG,2068,NSW,West
30 RAEBURN AVENUE,CASTLECRAG,2068,NSW,East
129 EASTERN VALLEY WAY,CASTLECRAG,2068,NSW,East
127 EASTERN VALLEY WAY,CASTLECRAG,2068,NSW,East
28 RAEBURN AVENUE,CASTLECRAG,2068,NSW,East
"UNIT 1, 125 EASTERN VALLEY WAY",CASTLECRAG,2068,NSW,East
"UNIT 2, 125 EASTERN VALLEY WAY",CASTLECRAG,2068,NSW,East
125 EASTERN VALLEY WAY,CASTLECRAG,2068,NSW,East
26 RAEBURN AVENUE,CASTLECRAG,2068,NSW,East
24 RAEBURN AVENUE,CASTLECRAG,2068,NSW,East
123 EASTERN VALLEY WAY,CASTLECRAG,2068,NSW,East
121 EASTERN VALLEY WAY,CASTLECRAG,2068,NSW,South
119 EASTERN VALLEY WAY,CASTLECRAG,2068,NSW,North
20 RAEBURN AVENUE,CASTLECRAG,2068,NSW,North
22 RAEBURN AVENUE,CASTLECRAG,2068,NSW,South
21 RAEBURN AVENUE,CASTLECRAG,2068,NSW,South
19 RAEBURN AVENUE,CASTLECRAG,2068,NSW,North
22 RUTLAND AVENUE,CASTLECRAG,2068,NSW,East
24 RUTLAND AVENUE,CASTLECRAG,2068,NSW,East
23 RAEBURN AVENUE,CASTLECRAG,2068,NSW,West
25 RAEBURN AVENUE,CASTLECRAG,2068,NSW,West
26 RUTLAND AVENUE,CASTLECRAG,2068,NSW,East
34 SUGARLOAF CRESCENT,CASTLECRAG,2068,NSW,North
32 SUGARLOAF CRESCENT,CASTLECRAG,2068,NSW,North
19 SUNNYSIDE CRESCENT,CASTLECRAG,2068,NSW,Southwest
15B SUNNYSIDE CRESCENT,CASTLECRAG,2068,NSW,Southwest
17 SUNNYSIDE CRESCENT,CASTLECRAG,2068,NSW,Southwest
15 SUNNYSIDE CRESCENT,CASTLECRAG,2068,NSW,Northeast
15A SUNNYSIDE CRESCENT,CASTLECRAG,2068,NSW,Northeast
13 SUNNYSIDE CRESCENT,CASTLECRAG,2068,NSW,Northeast
11 SUNNYSIDE CRESCENT,CASTLECRAG,2068,NSW,North
26 SUGARLOAF CRESCENT,CASTLECRAG,2068,NSW,North
28 SUGARLOAF CRESCENT,CASTLECRAG,2068,NSW,North
30 SUGARLOAF CRESCENT,CASTLECRAG,2068,NSW,North
21 SUGARLOAF CRESCENT,CASTLECRAG,2068,NSW,South
24 SUGARLOAF CRESCENT,CASTLECRAG,2068,NSW,Northeast
12 SUGARLOAF CRESCENT,CASTLECRAG,2068,NSW,North
14 SUGARLOAF CRESCENT,CASTLECRAG,2068,NSW,North
20 SUGARLOAF CRESCENT,CASTLECRAG,2068,NSW,Northeast
22 SUGARLOAF CRESCENT,CASTLECRAG,2068,NSW,Northeast
18 SUGARLOAF CRESCENT,CASTLECRAG,2068,NSW,Northeast
16 SUGARLOAF CRESCENT,CASTLECRAG,2068,NSW,Northeast
17 SUGARLOAF CRESCENT,CASTLECRAG,2068,NSW,Southwest
19 SUGARLOAF CRESCENT,CASTLECRAG,2068,NSW,South
10 LINCOLN AVENUE,CASTLECRAG,2068,NSW,North
4 LINCOLN AVENUE,CASTLECRAG,2068,NSW,North
6 LINCOLN AVENUE,CASTLECRAG,2068,NSW,Northeast
2 LINCOLN AVENUE,CASTLECRAG,2068,NSW,North
13 SUGARLOAF CRESCENT,CASTLECRAG,2068,NSW,South
1A LINCOLN AVENUE,CASTLECRAG,2068,NSW,South
1 LINCOLN AVENUE,CASTLECRAG,2068,NSW,South
3 LINCOLN AVENUE,CASTLECRAG,2068,NSW,North
17 LINCOLN AVENUE,CASTLECRAG,2068,NSW,Southwest
15 LINCOLN AVENUE,CASTLECRAG,2068,NSW,Southwest
11 LINCOLN AVENUE,CASTLECRAG,2068,NSW,Northeast
9 LINCOLN AVENUE,CASTLECRAG,2068,NSW,Northwest
13 LINCOLN AVENUE,CASTLECRAG,2068,NSW,Northeast
7 LINCOLN AVENUE,CASTLECRAG,2068,NSW,South
5 LINCOLN AVENUE,CASTLECRAG,2068,NSW,East
8 THE LEE,MIDDLE COVE,2068,NSW,Northeast
10 THE LEE,MIDDLE COVE,2068,NSW,South
65 SUGARLOAF CRESCENT,CASTLECRAG,2068,NSW,Northeast
33 SUNNYSIDE CRESCENT,CASTLECRAG,2068,NSW,Southwest
20 RUTLAND AVENUE,CASTLECRAG,2068,NSW,North
36 SUGARLOAF CRESCENT,CASTLECRAG,2068,NSW,North
63 SUGARLOAF CRESCENT,CASTLECRAG,2068,NSW,Northeast
217 EDINBURGH ROAD,CASTLECRAG,2068,NSW,South
207 EDINBURGH ROAD,CASTLECRAG,2068,NSW,South
203 EDINBURGH ROAD,CASTLECRAG,2068,NSW,South
217B EDINBURGH ROAD,CASTLECRAG,2068,NSW,East
225 EDINBURGH ROAD,CASTLECRAG,2068,NSW,South
219 EDINBURGH ROAD,CASTLECRAG,2068,NSW,South
219A EDINBURGH ROAD,CASTLECRAG,2068,NSW,South
223 EDINBURGH ROAD,CASTLECRAG,2068,NSW,South
239 EDINBURGH ROAD,CASTLECRAG,2068,NSW,Southwest
241 EDINBURGH ROAD,CASTLECRAG,2068,NSW,South
249 EDINBURGH ROAD,CASTLECRAG,2068,NSW,South
"UNIT 2, 249 EDINBURGH ROAD",CASTLECRAG,2068,NSW,South
245 EDINBURGH ROAD,CASTLECRAG,2068,NSW,South
233 EDINBURGH ROAD,CASTLECRAG,2068,NSW,South
253 EDINBURGH ROAD,CASTLECRAG,2068,NSW,South
227 EDINBURGH ROAD,CASTLECRAG,2068,NSW,West
27 THE SCARP,CASTLECRAG,2068,NSW,North
23 THE SCARP,CASTLECRAG,2068,NSW,North
17 THE SCARP,CASTLECRAG,2068,NSW,North
19 THE SCARP,CASTLECRAG,2068,NSW,North
15 THE SCARP,CASTLECRAG,2068,NSW,North
13 THE SCARP,CASTLECRAG,2068,NSW,South
8 THE SCARP,CASTLECRAG,2068,NSW,Southeast
10B THE SCARP,CASTLECRAG,2068,NSW,Southeast
10 THE SCARP,CASTLECRAG,2068,NSW,Southeast
10A THE SCARP,CASTLECRAG,2068,NSW,Southeast
38 THE BULWARK,CASTLECRAG,2068,NSW,North
14 THE SCARP,CASTLECRAG,2068,NSW,South
26 THE SCARP,CASTLECRAG,2068,NSW,South
32 THE BULWARK,CASTLECRAG,2068,NSW,South
34 THE BULWARK,CASTLECRAG,2068,NSW,West
18 THE SCARP,CASTLECRAG,2068,NSW,East
16 THE SCARP,CASTLECRAG,2068,NSW,South
34A THE BULWARK,CASTLECRAG,2068,NSW,South
36 THE BULWARK,CASTLECRAG,2068,NSW,North
36A THE BULWARK,CASTLECRAG,2068,NSW,North
25 THE BULWARK,CASTLECRAG,2068,NSW,South
28 THE BULWARK,CASTLECRAG,2068,NSW,North
26 THE BULWARK,CASTLECRAG,2068,NSW,Northwest
30 THE SCARP,CASTLECRAG,2068,NSW,North
28 THE SCARP,CASTLECRAG,2068,NSW,North
236 EDINBURGH ROAD,CASTLECRAG,2068,NSW,North
234 EDINBURGH ROAD,CASTLECRAG,2068,NSW,North
230 EDINBURGH ROAD,CASTLECRAG,2068,NSW,North
228 EDINBURGH ROAD,CASTLECRAG,2068,NSW,North
224 EDINBURGH ROAD,CASTLECRAG,2068,NSW,West
226 EDINBURGH ROAD,CASTLECRAG,2068,NSW,North
222 EDINBURGH ROAD,CASTLECRAG,2068,NSW,East
220 EDINBURGH ROAD,CASTLECRAG,2068,NSW,North
216 EDINBURGH ROAD,CASTLECRAG,2068,NSW,North
214 EDINBURGH ROAD,CASTLECRAG,2068,NSW,North
218 EDINBURGH ROAD,CASTLECRAG,2068,NSW,North
232 EDINBURGH ROAD,CASTLECRAG,2068,NSW,North
15 THE BULWARK,CASTLECRAG,2068,NSW,East
11A THE BULWARK,CASTLECRAG,2068,NSW,West
13 THE BULWARK,CASTLECRAG,2068,NSW,West
9 THE BULWARK,CASTLECRAG,2068,NSW,South
7 THE BULWARK,CASTLECRAG,2068,NSW,Southeast
11 THE BULWARK,CASTLECRAG,2068,NSW,South
19 THE BULWARK,CASTLECRAG,2068,NSW,South
17 THE BULWARK,CASTLECRAG,2068,NSW,South
21 THE BULWARK,CASTLECRAG,2068,NSW,South
23 THE BULWARK,CASTLECRAG,2068,NSW,South
200 EDINBURGH ROAD,CASTLECRAG,2068,NSW,West
202 EDINBURGH ROAD,CASTLECRAG,2068,NSW,North
204 EDINBURGH ROAD,CASTLECRAG,2068,NSW,North
206 EDINBURGH ROAD,CASTLECRAG,2068,NSW,North
208 EDINBURGH ROAD,CASTLECRAG,2068,NSW,North
212 EDINBURGH ROAD,CASTLECRAG,2068,NSW,North
210 EDINBURGH ROAD,CASTLECRAG,2068,NSW,North
215 EDINBURGH ROAD,CASTLECRAG,2068,NSW,South
211 EDINBURGH ROAD,CASTLECRAG,2068,NSW,South
209 EDINBURGH ROAD,CASTLECRAG,2068,NSW,South
205 EDINBURGH ROAD,CASTLECRAG,2068,NSW,South
201 EDINBURGH ROAD,CASTLECRAG,2068,NSW,South
31 THE BULWARK,CASTLECRAG,2068,NSW,West
27 THE BULWARK,CASTLECRAG,2068,NSW,South
29 THE BULWARK,CASTLECRAG,2068,NSW,West
33 THE BULWARK,CASTLECRAG,2068,NSW,East
35 THE BULWARK,CASTLECRAG,2068,NSW,North
37 THE BULWARK,CASTLECRAG,2068,NSW,North
39 THE BULWARK,CASTLECRAG,2068,NSW,Northwest
5 TOWER RESERVE,CASTLECRAG,2068,NSW,Southeast
41 THE BULWARK,CASTLECRAG,2068,NSW,Southeast
43 THE BULWARK,CASTLECRAG,2068,NSW,Southeast
40 THE BULWARK,CASTLECRAG,2068,NSW,North
42 THE BULWARK,CASTLECRAG,2068,NSW,Northwest
45 THE BULWARK,CASTLECRAG,2068,NSW,Southeast
49 THE BULWARK,CASTLECRAG,2068,NSW,Southeast
47 THE BULWARK,CASTLECRAG,2068,NSW,Southeast
55 THE BULWARK,CASTLECRAG,2068,NSW,West
59 THE BULWARK,CASTLECRAG,2068,NSW,Northwest
57 THE BULWARK,CASTLECRAG,2068,NSW,Northwest
1 THE BARRICADE,CASTLECRAG,2068,NSW,Northwest
50 THE BULWARK,CASTLECRAG,2068,NSW,West
2 THE SCARP,CASTLECRAG,2068,NSW,South
4 THE SCARP,CASTLECRAG,2068,NSW,East
48 THE BULWARK,CASTLECRAG,2068,NSW,West
53 THE BULWARK,CASTLECRAG,2068,NSW,West
2 THE BARTIZAN,CASTLECRAG,2068,NSW,East
51 THE BULWARK,CASTLECRAG,2068,NSW,West
6 THE BARTIZAN,CASTLECRAG,2068,NSW,Southeast
44 THE BULWARK,CASTLECRAG,2068,NSW,Northwest
46 THE BULWARK,CASTLECRAG,2068,NSW,Northwest
6 THE SCARP,CASTLECRAG,2068,NSW,East
11 THE SCARP,CASTLECRAG,2068,NSW,Southeast
9 THE SCARP,CASTLECRAG,2068,NSW,Northeast
7 THE SCARP,CASTLECRAG,2068,NSW,South
25 THE SCARP,CASTLECRAG,2068,NSW,North
27A THE SCARP,CASTLECRAG,2068,NSW,North
5 THE SCARP,CASTLECRAG,2068,NSW,North
3 THE SCARP,CASTLECRAG,2068,NSW,Northwest
1 THE SCARP,CASTLECRAG,2068,NSW,West
15 THE BARRICADE,CASTLECRAG,2068,NSW,North
11A THE BARRICADE,CASTLECRAG,2068,NSW,Southeast
7 THE BARRICADE,CASTLECRAG,2068,NSW,South
9 THE BARRICADE,CASTLECRAG,2068,NSW,South
11 THE BARRICADE,CASTLECRAG,2068,NSW,Northeast
5 THE BARRICADE,CASTLECRAG,2068,NSW,Northwest
56 THE BULWARK,CASTLECRAG,2068,NSW,Southeast
54 THE BULWARK,CASTLECRAG,2068,NSW,Southeast
3 THE BARRICADE,CASTLECRAG,2068,NSW,South
52 THE BULWARK,CASTLECRAG,2068,NSW,Southeast
58 THE BULWARK,CASTLECRAG,2068,NSW,North
60 THE BULWARK,CASTLECRAG,2068,NSW,North
13 THE CITADEL,CASTLECRAG,2068,NSW,Northwest
61 THE BULWARK,CASTLECRAG,2068,NSW,South
65 THE BULWARK,CASTLECRAG,2068,NSW,South
17 THE CITADEL,CASTLECRAG,2068,NSW,West
62 THE BULWARK,CASTLECRAG,2068,NSW,North
111 EDINBURGH ROAD,CASTLECRAG,2068,NSW,South
9 EDITH STREET,CASTLECRAG,2068,NSW,South
10 RUTLAND AVENUE,CASTLECRAG,2068,NSW,East
11 EDITH STREET,CASTLECRAG,2068,NSW,South
97 THE BULWARK,CASTLECRAG,2068,NSW,Northeast
42 THE PARAPET,CASTLECRAG,2068,NSW,Southwest
21 THE PARAPET,CASTLECRAG,2068,NSW,South
23 THE PARAPET,CASTLECRAG,2068,NSW,Southwest
25 THE PARAPET,CASTLECRAG,2068,NSW,Northeast
44 THE PARAPET,CASTLECRAG,2068,NSW,Southwest
46 THE PARAPET,CASTLECRAG,2068,NSW,Southwest
6 THE POSTERN,CASTLECRAG,2068,NSW,Southwest
8 THE POSTERN,CASTLECRAG,2068,NSW,Northeast
4 THE POSTERN,CASTLECRAG,2068,NSW,South
31 THE PARAPET,CASTLECRAG,2068,NSW,North
29 THE PARAPET,CASTLECRAG,2068,NSW,North
27 THE PARAPET,CASTLECRAG,2068,NSW,North
5 THE PARAPET,CASTLECRAG,2068,NSW,Northeast
3 THE PARAPET,CASTLECRAG,2068,NSW,Northeast
9 THE PARAPET,CASTLECRAG,2068,NSW,Southwest
7 THE PARAPET,CASTLECRAG,2068,NSW,East
"UNIT 1, 7 THE PARAPET",CASTLECRAG,2068,NSW,East
"UNIT 2, 7 THE PARAPET",CASTLECRAG,2068,NSW,East
11 THE PARAPET,CASTLECRAG,2068,NSW,Northeast
15 THE PARAPET,CASTLECRAG,2068,NSW,South
17 THE PARAPET,CASTLECRAG,2068,NSW,South
19 THE PARAPET,CASTLECRAG,2068,NSW,South
14 THE PARAPET,CASTLECRAG,2068,NSW,North
12 THE PARAPET,CASTLECRAG,2068,NSW,South
2 SORTIE PORT,CASTLECRAG,2068,NSW,East
22 THE BASTION,CASTLECRAG,2068,NSW,Northwest
1 SORTIE PORT,CASTLECRAG,2068,NSW,West
16 THE BASTION,CASTLECRAG,2068,NSW,North
14 THE BASTION,CASTLECRAG,2068,NSW,North
18 THE BASTION,CASTLECRAG,2068,NSW,North
20 THE BASTION,CASTLECRAG,2068,NSW,North
15 THE BASTION,CASTLECRAG,2068,NSW,South
17 THE BASTION,CASTLECRAG,2068,NSW,South
4 SORTIE PORT,CASTLECRAG,2068,NSW,East
6 SORTIE PORT,CASTLECRAG,2068,NSW,East
8 SORTIE PORT,CASTLECRAG,2068,NSW,East
1 THE BATTLEMENT,CASTLECRAG,2068,NSW,Northwest
25 THE BASTION,CASTLECRAG,2068,NSW,South
23 THE BASTION,CASTLECRAG,2068,NSW,Southeast
21 THE BASTION,CASTLECRAG,2068,NSW,Southeast
19 THE BASTION,CASTLECRAG,2068,NSW,West
95 THE BULWARK,CASTLECRAG,2068,NSW,West
9 THE BATTLEMENT,CASTLECRAG,2068,NSW,Northwest
7 THE BATTLEMENT,CASTLECRAG,2068,NSW,Northwest
5 THE BATTLEMENT,CASTLECRAG,2068,NSW,Northwest
3 THE BATTLEMENT,CASTLECRAG,2068,NSW,Northwest
10 SORTIE PORT,CASTLECRAG,2068,NSW,Southwest
12 SORTIE PORT,CASTLECRAG,2068,NSW,Southwest
2 THE PARAPET,CASTLECRAG,2068,NSW,Southwest
4 THE PARAPET,CASTLECRAG,2068,NSW,Southwest
1 THE PARAPET,CASTLECRAG,2068,NSW,Southwest
140 EDINBURGH ROAD,CASTLECRAG,2068,NSW,Northeast
138 EDINBURGH ROAD,CASTLECRAG,2068,NSW,Northeast
136A EDINBURGH ROAD,CASTLECRAG,2068,NSW,Southwest
136 EDINBURGH ROAD,CASTLECRAG,2068,NSW,Southwest
144 EDINBURGH ROAD,CASTLECRAG,2068,NSW,Northwest
142 EDINBURGH ROAD,CASTLECRAG,2068,NSW,Southwest
14 SORTIE PORT,CASTLECRAG,2068,NSW,Northeast
148 EDINBURGH ROAD,CASTLECRAG,2068,NSW,Northeast
119 EDINBURGH ROAD,CASTLECRAG,2068,NSW,South
117 EDINBURGH ROAD,CASTLECRAG,2068,NSW,South
121 EDINBURGH ROAD,CASTLECRAG,2068,NSW,North
150 EDINBURGH ROAD,CASTLECRAG,2068,NSW,Northwest
8 THE BATTLEMENT,CASTLECRAG,2068,NSW,Southeast
6B THE BATTLEMENT,CASTLECRAG,2068,NSW,Southeast
6A THE BATTLEMENT,CASTLECRAG,2068,NSW,Southeast
6 THE BATTLEMENT,CASTLECRAG,2068,NSW,Southeast
2 THE BATTLEMENT,CASTLECRAG,2068,NSW,Southeast
4 THE BATTLEMENT,CASTLECRAG,2068,NSW,Southeast
13 THE BATTLEMENT,CASTLECRAG,2068,NSW,East
11 THE BATTLEMENT,CASTLECRAG,2068,NSW,Northwest
93 THE BULWARK,CASTLECRAG,2068,NSW,West
15 THE BATTLEMENT,CASTLECRAG,2068,NSW,Southeast
17 THE BATTLEMENT,CASTLECRAG,2068,NSW,Northeast
19 THE BATTLEMENT,CASTLECRAG,2068,NSW,Southeast
12 THE BATTLEMENT,CASTLECRAG,2068,NSW,Southeast
10 THE BATTLEMENT,CASTLECRAG,2068,NSW,Southeast
156 EDINBURGH ROAD,CASTLECRAG,2068,NSW,Northwest
158 EDINBURGH ROAD,CASTLECRAG,2068,NSW,West
16 THE BATTLEMENT,CASTLECRAG,2068,NSW,Southeast
14 THE BATTLEMENT,CASTLECRAG,2068,NSW,Southeast
21 THE BATTLEMENT,CASTLECRAG,2068,NSW,Southeast
18 THE BATTLEMENT,CASTLECRAG,2068,NSW,Southeast
20 THE BATTLEMENT,CASTLECRAG,2068,NSW,Southeast
22 THE BATTLEMENT,CASTLECRAG,2068,NSW,Southeast
24 THE BATTLEMENT,CASTLECRAG,2068,NSW,Southeast
166 EDINBURGH ROAD,CASTLECRAG,2068,NSW,Northwest
164 EDINBURGH ROAD,CASTLECRAG,2068,NSW,Northwest
147 EDINBURGH ROAD,CASTLECRAG,2068,NSW,Southeast
145 EDINBURGH ROAD,CASTLECRAG,2068,NSW,Southeast
162 EDINBURGH ROAD,CASTLECRAG,2068,NSW,Northwest
160 EDINBURGH ROAD,CASTLECRAG,2068,NSW,Northwest
143 EDINBURGH ROAD,CASTLECRAG,2068,NSW,South
32 SUNNYSIDE CRESCENT,CASTLECRAG,2068,NSW,North
34 SUNNYSIDE CRESCENT,CASTLECRAG,2068,NSW,North
28 SUNNYSIDE CRESCENT,CASTLECRAG,2068,NSW,Southeast
30 SUNNYSIDE CRESCENT,CASTLECRAG,2068,NSW,North
22 SUNNYSIDE CRESCENT,CASTLECRAG,2068,NSW,Southeast
24 SUNNYSIDE CRESCENT,CASTLECRAG,2068,NSW,Southeast
26 SUNNYSIDE CRESCENT,CASTLECRAG,2068,NSW,Southeast
20 SUNNYSIDE CRESCENT,CASTLECRAG,2068,NSW,Northeast
18 SUNNYSIDE CRESCENT,CASTLECRAG,2068,NSW,Northeast
13 EDITH STREET,CASTLECRAG,2068,NSW,Southeast
15 EDITH STREET,CASTLECRAG,2068,NSW,Southeast
7 EDITH STREET,CASTLECRAG,2068,NSW,South
5 EDITH STREET,CASTLECRAG,2068,NSW,South
3 EDITH STREET,CASTLECRAG,2068,NSW,South
1 EDITH STREET,CASTLECRAG,2068,NSW,South
135 EDINBURGH ROAD,CASTLECRAG,2068,NSW,Southeast
133 EDINBURGH ROAD,CASTLECRAG,2068,NSW,Southeast
5 CHARLES STREET,CASTLECRAG,2068,NSW,West
7 CHARLES STREET,CASTLECRAG,2068,NSW,North
6 CHARLES STREET,CASTLECRAG,2068,NSW,East
5 RUTLAND AVENUE,CASTLECRAG,2068,NSW,West
7 RUTLAND AVENUE,CASTLECRAG,2068,NSW,West
9 RUTLAND AVENUE,CASTLECRAG,2068,NSW,West
12 CHARLES STREET,CASTLECRAG,2068,NSW,East
8 CHARLES STREET,CASTLECRAG,2068,NSW,East
10 CHARLES STREET,CASTLECRAG,2068,NSW,East
9 CHARLES STREET,CASTLECRAG,2068,NSW,West
11 CHARLES STREET,CASTLECRAG,2068,NSW,West
17 EDITH STREET,CASTLECRAG,2068,NSW,West
13 CHARLES STREET,CASTLECRAG,2068,NSW,West
15 CHARLES STREET,CASTLECRAG,2068,NSW,West
16 CHARLES STREET,CASTLECRAG,2068,NSW,East
18 CHARLES STREET,CASTLECRAG,2068,NSW,East
17 RUTLAND AVENUE,CASTLECRAG,2068,NSW,West
15 RUTLAND AVENUE,CASTLECRAG,2068,NSW,West
14 CHARLES STREET,CASTLECRAG,2068,NSW,East
13 RUTLAND AVENUE,CASTLECRAG,2068,NSW,West
11 RUTLAND AVENUE,CASTLECRAG,2068,NSW,West
1 RUTLAND AVENUE,CASTLECRAG,2068,NSW,West
3 RUTLAND AVENUE,CASTLECRAG,2068,NSW,West
4 CHARLES STREET,CASTLECRAG,2068,NSW,East
3 CHARLES STREET,CASTLECRAG,2068,NSW,West
1 CHARLES STREET,CASTLECRAG,2068,NSW,West
2 CHARLES STREET,CASTLECRAG,2068,NSW,East
107 EDINBURGH ROAD,CASTLECRAG,2068,NSW,South
109 EDINBURGH ROAD,CASTLECRAG,2068,NSW,South
115 EDINBURGH ROAD,CASTLECRAG,2068,NSW,West
113 EDINBURGH ROAD,CASTLECRAG,2068,NSW,East
103 EDINBURGH ROAD,CASTLECRAG,2068,NSW,East
105 EDINBURGH ROAD,CASTLECRAG,2068,NSW,West
132 EDINBURGH ROAD,CASTLECRAG,2068,NSW,South
134 EDINBURGH ROAD,CASTLECRAG,2068,NSW,Southwest
128 EDINBURGH ROAD,CASTLECRAG,2068,NSW,South
130 EDINBURGH ROAD,CASTLECRAG,2068,NSW,South
126A EDINBURGH ROAD,CASTLECRAG,2068,NSW,Northwest
126B EDINBURGH ROAD,CASTLECRAG,2068,NSW,Northwest
126 EDINBURGH ROAD,CASTLECRAG,2068,NSW,Northwest
2 THE POSTERN,CASTLECRAG,2068,NSW,Northwest
41 THE RAMPART,CASTLECRAG,2068,NSW,Northeast
1 THE RAMPART,CASTLECRAG,2068,NSW,North
97 EASTERN VALLEY WAY,CASTLECRAG,2068,NSW,South
7 THE POSTERN,CASTLECRAG,2068,NSW,South
9 THE POSTERN,CASTLECRAG,2068,NSW,South
11 THE POSTERN,CASTLECRAG,2068,NSW,South
12 RUTLAND AVENUE,CASTLECRAG,2068,NSW,East
"SHOP 26, 100 EDINBURGH ROAD",CASTLECRAG,2068,NSW,East
"SHOP 16, 100 EDINBURGH ROAD",CASTLECRAG,2068,NSW,East
"SHOP 18, 100 EDINBURGH ROAD",CASTLECRAG,2068,NSW,East
"SHOP 19, 100 EDINBURGH ROAD",CASTLECRAG,2068,NSW,East
"SHOP 22, 100 EDINBURGH ROAD",CASTLECRAG,2068,NSW,East
"SHOP 1, 100 EDINBURGH ROAD",CASTLECRAG,2068,NSW,East
"SHOP 2, 100 EDINBURGH ROAD",CASTLECRAG,2068,NSW,East
"SHOP 4, 100 EDINBURGH ROAD",CASTLECRAG,2068,NSW,East
"SHOP 5, 100 EDINBURGH ROAD",CASTLECRAG,2068,NSW,East
"SHOP 6, 100 EDINBURGH ROAD",CASTLECRAG,2068,NSW,East
"SHOP 9, 100 EDINBURGH ROAD",CASTLECRAG,2068,NSW,East
"SHOP 14, 100 EDINBURGH ROAD",CASTLECRAG,2068,NSW,East
"SHOP 15, 100 EDINBURGH ROAD",CASTLECRAG,2068,NSW,East
"SHOP 8A, 100 EDINBURGH ROAD",CASTLECRAG,2068,NSW,East
"SHOP 23, 100 EDINBURGH ROAD",CASTLECRAG,2068,NSW,East
"SHOP 25, 100 EDINBURGH ROAD",CASTLECRAG,2068,NSW,East
"SHOP 27, 100 EDINBURGH ROAD",CASTLECRAG,2068,NSW,East
"SHOP 7, 100 EDINBURGH ROAD",CASTLECRAG,2068,NSW,East
"SHOP 8, 100 EDINBURGH ROAD",CASTLECRAG,2068,NSW,East
"SHOP 10, 100 EDINBURGH ROAD",CASTLECRAG,2068,NSW,East
"SHOP 11, 100 EDINBURGH ROAD",CASTLECRAG,2068,NSW,East
"SHOP 12, 100 EDINBURGH ROAD",CASTLECRAG,2068,NSW,East
"SHOP 13, 100 EDINBURGH ROAD",CASTLECRAG,2068,NSW,East
"SHOP 3, 100 EDINBURGH ROAD",CASTLECRAG,2068,NSW,East
100 EDINBURGH ROAD,CASTLECRAG,2068,NSW,East
11 RAEBURN AVENUE,CASTLECRAG,2068,NSW,West
13 RAEBURN AVENUE,CASTLECRAG,2068,NSW,West
14 RUTLAND AVENUE,CASTLECRAG,2068,NSW,East
16 RUTLAND AVENUE,CASTLECRAG,2068,NSW,East
18 RUTLAND AVENUE,CASTLECRAG,2068,NSW,East
"UNIT 1, 3 THE POSTERN",CASTLECRAG,2068,NSW,Southwest
"UNIT 3, 3 THE POSTERN",CASTLECRAG,2068,NSW,Southwest
3 THE POSTERN,CASTLECRAG,2068,NSW,Southwest
"UNIT 7, 3 THE POSTERN",CASTLECRAG,2068,NSW,Southwest
"UNIT 5, 3 THE POSTERN",CASTLECRAG,2068,NSW,Southwest
"UNIT 2A, 3 THE POSTERN",CASTLECRAG,2068,NSW,Southwest
"UNIT 2, 3 THE POSTERN",CASTLECRAG,2068,NSW,Southwest
"UNIT 4, 3 THE POSTERN",CASTLECRAG,2068,NSW,Southwest
"UNIT 6, 3 THE POSTERN",CASTLECRAG,2068,NSW,Southwest
5 THE POSTERN,CASTLECRAG,2068,NSW,Northeast
6 RUTLAND AVENUE,CASTLECRAG,2068,NSW,East
8 RUTLAND AVENUE,CASTLECRAG,2068,NSW,East
17 RAEBURN AVENUE,CASTLECRAG,2068,NSW,West
15 RAEBURN AVENUE,CASTLECRAG,2068,NSW,West
14 RAEBURN AVENUE,CASTLECRAG,2068,NSW,East
12 RAEBURN AVENUE,CASTLECRAG,2068,NSW,East
10 RAEBURN AVENUE,CASTLECRAG,2068,NSW,East
9 RAEBURN AVENUE,CASTLECRAG,2068,NSW,West
8 RAEBURN AVENUE,CASTLECRAG,2068,NSW,East
7 RAEBURN AVENUE,CASTLECRAG,2068,NSW,West
5 RAEBURN AVENUE,CASTLECRAG,2068,NSW,West
6 RAEBURN AVENUE,CASTLECRAG,2068,NSW,East
83 EDINBURGH ROAD,CASTLECRAG,2068,NSW,North
85 EDINBURGH ROAD,CASTLECRAG,2068,NSW,North
81A EDINBURGH ROAD,CASTLECRAG,2068,NSW,East
81 EDINBURGH ROAD,CASTLECRAG,2068,NSW,East
79 EDINBURGH ROAD,CASTLECRAG,2068,NSW,East
"UNIT 1, 79 EDINBURGH ROAD",CASTLECRAG,2068,NSW,East
"UNIT 2, 79 EDINBURGH ROAD",CASTLECRAG,2068,NSW,East
91 EDINBURGH ROAD,CASTLECRAG,2068,NSW,North
93B EDINBURGH ROAD,CASTLECRAG,2068,NSW,North
93 EDINBURGH ROAD,CASTLECRAG,2068,NSW,North
91A EDINBURGH ROAD,CASTLECRAG,2068,NSW,North
93A EDINBURGH ROAD,CASTLECRAG,2068,NSW,North
89 EDINBURGH ROAD,CASTLECRAG,2068,NSW,North
89A EDINBURGH ROAD,CASTLECRAG,2068,NSW,North
87A EDINBURGH ROAD,CASTLECRAG,2068,NSW,North
87 EDINBURGH ROAD,CASTLECRAG,2068,NSW,North
95 EDINBURGH ROAD,CASTLECRAG,2068,NSW,West
1 RAEBURN AVENUE,CASTLECRAG,2068,NSW,West
2 RAEBURN AVENUE,CASTLECRAG,2068,NSW,East
4 RAEBURN AVENUE,CASTLECRAG,2068,NSW,East
3 RAEBURN AVENUE,CASTLECRAG,2068,NSW,West
4 RUTLAND AVENUE,CASTLECRAG,2068,NSW,East
2 RUTLAND AVENUE,CASTLECRAG,2068,NSW,East
97 EDINBURGH ROAD,CASTLECRAG,2068,NSW,East
99 EDINBURGH ROAD,CASTLECRAG,2068,NSW,East
120 EDINBURGH ROAD,CASTLECRAG,2068,NSW,Southwest
"SHOP 2A, 120 EDINBURGH ROAD",CASTLECRAG,2068,NSW,Southwest
"SHOP 4, 120 EDINBURGH ROAD",CASTLECRAG,2068,NSW,Southwest
"SHOP 5, 120 EDINBURGH ROAD",CASTLECRAG,2068,NSW,Southwest
"SHOP 6, 120 EDINBURGH ROAD",CASTLECRAG,2068,NSW,Southwest
"SHOP 1, 120 EDINBURGH ROAD",CASTLECRAG,2068,NSW,Southwest
"SHOP 2, 120 EDINBURGH ROAD",CASTLECRAG,2068,NSW,Southwest
"SHOP 3, 120 EDINBURGH ROAD",CASTLECRAG,2068,NSW,Southwest
"SHOP 3A, 120 EDINBURGH ROAD",CASTLECRAG,2068,NSW,Southwest
"UNIT 2, 77A EDINBURGH ROAD",CASTLECRAG,2068,NSW,East
77A EDINBURGH ROAD,CASTLECRAG,2068,NSW,East
"UNIT 1, 77A EDINBURGH ROAD",CASTLECRAG,2068,NSW,East
"SHOP 1, 118 EDINBURGH ROAD",CASTLECRAG,2068,NSW,Southwest
"SHOP 2, 118 EDINBURGH ROAD",CASTLECRAG,2068,NSW,Southwest
"SHOP 3A, 118 EDINBURGH ROAD",CASTLECRAG,2068,NSW,Southwest
"SHOP 3, 118 EDINBURGH ROAD",CASTLECRAG,2068,NSW,Southwest
"SHOP 4, 118 EDINBURGH ROAD",CASTLECRAG,2068,NSW,Southwest
"SHOP 5, 118 EDINBURGH ROAD",CASTLECRAG,2068,NSW,Southwest
"SHOP 6, 118 EDINBURGH ROAD",CASTLECRAG,2068,NSW,Southwest
118 EDINBURGH ROAD,CASTLECRAG,2068,NSW,Southwest
116 EDINBURGH ROAD,CASTLECRAG,2068,NSW,Southwest
95 EASTERN VALLEY WAY,CASTLECRAG,2068,NSW,North
73-77 EDINBURGH ROAD,CASTLECRAG,2068,NSW,West
101 EDINBURGH ROAD,CASTLECRAG,2068,NSW,East
2 ROCKLEY STREET,CASTLECRAG,2068,NSW,South
4 ROCKLEY STREET,CASTLECRAG,2068,NSW,Southeast
6 ROCKLEY STREET,CASTLECRAG,2068,NSW,Southeast
8A ROCKLEY STREET,CASTLECRAG,2068,NSW,Southeast
14 ROCKLEY STREET,CASTLECRAG,2068,NSW,Southeast
10 ROCKLEY STREET,CASTLECRAG,2068,NSW,Southeast
